[{"PlaceName":"Bagong Silangan","Lat":"14.7121194","Long":"121.1132812","PopulationSize":"32497","FaultRegion":"west"},{"PlaceName":"Bagumbayan","Lat":"14.6070635","Long":"121.0823258","PopulationSize":"7597","FaultRegion":"west"},{"PlaceName":"Batasan Hills","Lat":"14.6821595","Long":"121.0975969","PopulationSize":"109723","FaultRegion":"west"},{"PlaceName":"Blue Ridge B","Lat":"14.6180853","Long":"121.0760187","PopulationSize":"1345","FaultRegion":"west"},{"PlaceName":"Libis","Lat":"14.6160077","Long":"121.0767603","PopulationSize":"5902","FaultRegion":"west"},{"PlaceName":"Matandang Balara","Lat":"14.6637419","Long":"121.0833586","PopulationSize":"62703","FaultRegion":"west"},{"PlaceName":"Pansol","Lat":"14.1772303","Long":"121.1826807","PopulationSize":"19002","FaultRegion":"west"},{"PlaceName":"White Plains","Lat":"14.6065564","Long":"121.0730508","PopulationSize":"3791","FaultRegion":"west"},{"PlaceName":"Ugong Norte","Lat":"14.5956925","Long":"121.0704115","PopulationSize":"6959","FaultRegion":"west"},{"PlaceName":"Loyola Heights","Lat":"14.6378495","Long":"121.0734726","PopulationSize":"14252","FaultRegion":"west"},{"PlaceName":"Pasong Putik Proper","Lat":"14.7205984","Long":"121.0501286","PopulationSize":"20804","FaultRegion":"west"},{"PlaceName":"Payatas","Lat":"14.7096106","Long":"121.100353","PopulationSize":"112690","FaultRegion":"west"},{"PlaceName":"Barangka","Lat":"14.6351515","Long":"121.0816768","PopulationSize":"19466","FaultRegion":"west"},{"PlaceName":"Industrial Valley","Lat":"14.6249227","Long":"121.0782325","PopulationSize":"13366","FaultRegion":"west"},{"PlaceName":"Malanday","Lat":"14.6492939","Long":"121.0931701","PopulationSize":"42256","FaultRegion":"west"},{"PlaceName":"Tumana","Lat":"14.6579246","Long":"121.0958066","PopulationSize":"41809","FaultRegion":"west"},{"PlaceName":"Bagong Ilog","Lat":"14.5652631","Long":"121.0694968","PopulationSize":"16432","FaultRegion":"west"},{"PlaceName":"Ugong Norte","Lat":"14.5818543","Long":"121.0725326","PopulationSize":"19034","FaultRegion":"west"},{"PlaceName":"East Rembo","Lat":"14.5530289","Long":"121.0617721","PopulationSize":"23902","FaultRegion":"west"},{"PlaceName":"Pembo","Lat":"14.5439731","Long":"121.0580988","PopulationSize":"35035","FaultRegion":"west"},{"PlaceName":"Rizal","Lat":"14.5352886","Long":"121.0620752","PopulationSize":"37022","FaultRegion":"west"},{"PlaceName":"Comembo","Lat":"14.5469551","Long":"121.064854","PopulationSize":"14174","FaultRegion":"west"},{"PlaceName":"Bagumbayan","Lat":"14.476138","Long":"121.0552261","PopulationSize":"27058","FaultRegion":"west"},{"PlaceName":"Bagong Tanyag","Lat":"14.4764681","Long":"121.0484979","PopulationSize":"32078","FaultRegion":"west"},{"PlaceName":"Upper Bicutan","Lat":"14.4974668","Long":"121.0495199","PopulationSize":"48865","FaultRegion":"west"},{"PlaceName":"Central Bicutan","Lat":"14.4974668","Long":"121.0495199","PopulationSize":"90336","FaultRegion":"west"},{"PlaceName":"Lower Bicutan","Lat":"14.4906889","Long":"121.0587748","PopulationSize":"63214","FaultRegion":"west"},{"PlaceName":"Maharlika Village","Lat":"14.4981952","Long":"121.055544","PopulationSize":"12857","FaultRegion":"west"},{"PlaceName":"Central Signal Village","Lat":"14.5109023","Long":"121.0552999","PopulationSize":"82765","FaultRegion":"west"},{"PlaceName":"Ususan","Lat":"14.5308045","Long":"121.0652402","PopulationSize":"13872","FaultRegion":"west"},{"PlaceName":"Alabang","Lat":"14.4166683","Long":"121.0424146","PopulationSize":"48002","FaultRegion":"west"},{"PlaceName":"Bayanan","Lat":"14.4093216","Long":"121.0475513","PopulationSize":"33217","FaultRegion":"west"},{"PlaceName":"Buli","Lat":"14.4433329","Long":"121.0494597","PopulationSize":"8950","FaultRegion":"west"},{"PlaceName":"Cupang","Lat":"14.4346936","Long":"121.0388995","PopulationSize":"47235","FaultRegion":"west"},{"PlaceName":"Poblacion","Lat":"14.3804471","Long":"121.0322518","PopulationSize":"49128","FaultRegion":"west"},{"PlaceName":"Putatan","Lat":"14.3980121","Long":"121.0374346","PopulationSize":"82276","FaultRegion":"west"},{"PlaceName":"Sucat","Lat":"14.4558612","Long":"121.0483981","PopulationSize":"46552","FaultRegion":"west"},{"PlaceName":"Tunasan","Lat":"14.3681965","Long":"121.0326407","PopulationSize":"44306","FaultRegion":"west"},{"PlaceName":"San Jose Del Monte City (3)","Lat":"14.8169251","Long":"121.0869741","PopulationSize":"4746","FaultRegion":"west"},{"PlaceName":"San Lorenzo","Lat":"14.8764747","Long":"121.1841667","PopulationSize":"2114","FaultRegion":"west"},{"PlaceName":"Dona Remedios Trinidad (6)","Lat":"15.0926197","Long":"121.2014509","PopulationSize":"19878","FaultRegion":"west"},{"PlaceName":"San Pedro (7)","Lat":"14.3488392","Long":"121.0409864","PopulationSize":"132481","FaultRegion":"west"},{"PlaceName":"Binan (3)","Lat":"14.3488392","Long":"121.0409864","PopulationSize":"20618","FaultRegion":"west"},{"PlaceName":"Sto, Domingo","Lat":"14.3366162","Long":"121.0822362","PopulationSize":"1295","FaultRegion":"west"},{"PlaceName":"Casile","Lat":"14.298302","Long":"121.08416","PopulationSize":"1249","FaultRegion":"west"},{"PlaceName":"Canlubang","Lat":"14.1848365","Long":"121.0554528","PopulationSize":"45294","FaultRegion":"west"},{"PlaceName":"San Jose","Lat":"14.330349","Long":"121.0344672","PopulationSize":"3293","FaultRegion":"west"},{"PlaceName":"Carmona (4)","Lat":"14.3018582","Long":"121.0399548","PopulationSize":"25343","FaultRegion":"west"},{"PlaceName":"Silang (2)","Lat":"14.2090883","Long":"120.9888194","PopulationSize":"3289","FaultRegion":"west"},{"PlaceName":"Ampid I","Lat":"14.682472","Long":"121.115387","PopulationSize":"19652","FaultRegion":"east"},{"PlaceName":"Dulongbayan Ii","Lat":"14.7011362","Long":"121.1225618","PopulationSize":"5164","FaultRegion":"east"},{"PlaceName":"Guinayang","Lat":"14.701743","Long":"121.130356","PopulationSize":"5315","FaultRegion":"east"},{"PlaceName":"Guiltnangbayan Ii","Lat":"14.695801","Long":"121.120549","PopulationSize":"8740","FaultRegion":"east"},{"PlaceName":"Malanday","Lat":"14.6492939","Long":"121.0931701","PopulationSize":"11532","FaultRegion":"east"},{"PlaceName":"Maly","Lat":"14.680879","Long":"121.136673","PopulationSize":"10536","FaultRegion":"east"},{"PlaceName":"Santa Ana","Lat":"14.6246721","Long":"121.0999637","PopulationSize":"8358","FaultRegion":"east"},{"PlaceName":"Burgos","Lat":"14.7148601","Long":"121.1377108","PopulationSize":"25146","FaultRegion":"east"},{"PlaceName":"Macabud","Lat":"14.759817","Long":"121.2019485","PopulationSize":"3124","FaultRegion":"east"},{"PlaceName":"San Jose","Lat":"14.730412","Long":"121.1347658","PopulationSize":"40372","FaultRegion":"east"},{"PlaceName":"San Isidro","Lat":"14.6048366","Long":"121.1887316","PopulationSize":"2618","FaultRegion":"east"},{"PlaceName":"San Rafael (Rosario)","Lat":"14.735982","Long":"121.152068","PopulationSize":"14835","FaultRegion":"east"}]